INTELSAT 10 (IS-10)     
1 26766U 01019A   25337.49558478 -.00000156  00000+0  00000+0 0  9999
2 26766   8.6063  61.2471 0007771 218.7876 149.4282  0.99078102 43647
INTELSAT 902 (IS-902)   
1 26900U 01039A   25335.70832537 -.00000263  00000+0  00000+0 0  9993
2 26900   5.6187  74.2002 0004309 175.1190  26.3816  1.00270327 88713
INTELSAT 904 (IS-904)   
1 27380U 02007A   25337.13886435 -.00000210  00000+0  00000+0 0  9999
2 27380   6.4293  71.5412 0001581 200.7188 178.4698  1.00269372 49801
DIRECTV 5 (TEMPO 1)     
1 27426U 02023A   25337.40866213 -.00000040  00000+0  00000+0 0  9991
2 27426   4.3765  77.7618 0003776 189.4718 202.2592  1.00271174 86161
INTELSAT 905 (IS-905)   
1 27438U 02027A   25337.40328876  .00000109  00000+0  00000+0 0  9991
2 27438   6.2606  72.1621 0003130 189.1417 179.1858  1.00273288 49400
GALAXY 3C (G-3C)        
1 27445U 02030A   25337.41169550 -.00000135  00000+0  00000+0 0  9996
2 27445   3.2391  80.6023 0001284  98.3929 306.8593  1.00270115 44533
INTELSAT 906 (IS-906)   
1 27513U 02041A   25337.37182860  .00000029  00000+0  00000+0 0  9999
2 27513   5.3053  75.3426 0006118 192.3717   2.7424  1.00273124 85067
GALAXY 13 (HORIZONS-1)  
1 27954U 03044A   25337.45846389  .00000151  00000+0  00000+0 0  9990
2 27954   0.9116  86.5866 0002077 161.0801 199.9225  1.00272550 44612
INTELSAT 10-02          
1 28358U 04022A   25337.36887170  .00000008  00000+0  00000+0 0  9990
2 28358   0.0367  79.1202 0001042 196.9462 288.1968  1.00270156 78592
XM-3 (RHYTHM)           
1 28626U 05008A   25336.79734162 -.00000232  00000+0  00000+0 0  9991
2 28626   0.1467  80.7430 0000864 265.9206 173.7506  0.98955046 40654
DIRECTV 8               
1 28659U 05019A   25337.40684213  .00000020  00000+0  00000+0 0  9993
2 28659   0.0162 311.7689 0003313 309.0900 199.0642  1.00271370 75113
GALAXY 28 (G-28)        
1 28702U 05022A   25337.41290883 -.00000170  00000+0  00000+0 0  9990
2 28702   2.7948  81.3891 0002666 169.5585 241.5015  1.00272322 50013
GALAXY 16 (G-16)        
1 29236U 06023A   25337.41082882 -.00000108  00000+0  00000+0 0  9994
2 29236   0.0247 220.4527 0002909  34.8063 226.1304  1.00270132 71016
DIRECTV 9S              
1 29494U 06043A   25337.41039549 -.00000095  00000+0  00000+0 0  9999
2 29494   1.9142  83.3095 0003202 168.2729 227.4569  1.00270573 49426
GALAXY 17 (G-17)        
1 31307U 07016B   25337.41360218 -.00000189  00000+0  00000+0 0  9990
2 31307   2.4746  82.3920 0006113 156.6812 257.3305  1.00270439 67849
DIRECTV 10              
1 31862U 07032A   25337.33872174 -.00000084  00000+0  00000+0 0  9998
2 31862   0.0057 272.4920 0000291 275.3626 263.7199  1.00270968 43639
INTELSAT 11 (IS-11)     
1 32253U 07044B   25337.41195550  .00000007  00000+0  00000+0 0  9995
2 32253   3.0539  81.0808 0009282 161.1046 245.3925  0.99047262 66519
HORIZONS-2              
1 32388U 07063B   25337.41585551 -.00000236  00000+0  00000+0 0  9994
2 32388   2.0954  83.0628 0004974 180.8140 244.5524  1.00272062 65859
DIRECTV 11              
1 32729U 08013A   25337.33950174 -.00000107  00000+0  00000+0 0  9994
2 32729   0.0112 227.5771 0000281 311.5736 276.3071  1.00268433 43636
GALAXY 18 (G-18)        
1 32951U 08024A   25337.33464837  .00000044  00000+0  00000+0 0  9998
2 32951   0.0180  10.9677 0003386 247.1815 171.7557  1.00272272 43888
INTELSAT 25 (IS-25)     
1 33153U 08034A   25337.35284847 -.00000206  00000+0  00000+0 0  9998
2 33153   2.2016  82.7527 0005342 177.2563 267.9690  1.00271413 63731
GALAXY 19 (G-19)        
1 33376U 08045A   25337.41126215 -.00000121  00000+0  00000+0 0  9994
2 33376   0.0171  19.6363 0003440 244.4356 219.4911  1.00270834 62943
FM-5                    
1 35493U 09034A   25337.41342883 -.00000182  00000+0  00000+0 0  9993
2 35493   0.0227 284.8547 0001147 238.3665 331.9799  1.00269598 44684
INTELSAT 14 (IS-14)     
1 36097U 09064A   25337.35024846 -.00000255  00000+0  00000+0 0  9997
2 36097   0.0160 304.2441 0002644 310.2273 259.0649  1.00271378 58643
INTELSAT 15 (IS-15)     
1 36106U 09067A   25337.44731572 -.00000167  00000+0  00000+0 0  9994
2 36106   0.0146 328.0009 0002442 285.7231  65.0084  1.00270332 39262
DIRECTV 12              
1 36131U 09075A   25337.41013549 -.00000085  00000+0  00000+0 0  9994
2 36131   0.0134  83.6727 0000070 112.5896 281.1720  1.00270402 44595
INTELSAT 16 (IS-16)     
1 36397U 10006A   25337.41533551 -.00000226  00000+0  00000+0 0  9991
2 36397   0.0121 313.0590 0002378 302.3904 250.3777  1.00269955 57691
XM-5                    
1 37185U 10053A   25336.44280981 -.00000002  00000+0  00000+0 0  9999
2 37185   0.0649 272.7549 0001582 239.5567 323.4678  1.00270481 55516
INTELSAT 17 (IS-17)     
1 37238U 10065B   25337.44358903  .00000017  00000+0  00000+0 0  9997
2 37238   0.0160 283.1971 0002381 335.7412  39.2864  1.00267665 51283
INTELSAT 28 (IS-28)     
1 37392U 11016A   25337.35284847 -.00000206  00000+0  00000+0 0  9991
2 37392   1.2983  85.1678 0004078 172.4390 270.1581  1.00271290 51326
INTELSAT 18 (IS-18)     
1 37834U 11056A   25336.61004171  .00000073  00000+0  00000+0 0  9995
2 37834   0.0103 349.7893 0002135 263.5740 217.9638  1.00271068 51841
INTELSAT 22 (IS-22)     
1 38098U 12011A   25337.44480236 -.00000040  00000+0  00000+0 0  9997
2 38098   0.0039 355.7027 0001695 263.1859  45.8802  1.00270985  5224
INTELSAT 19 (IS-19)     
1 38356U 12030A   25337.17799608 -.00000037  00000+0  00000+0 0  9997
2 38356   0.0099 315.9316 0003470 301.8821  44.5560  1.00271683 48486
INTELSAT 20 (IS-20)     
1 38740U 12043A   25336.94462190  .00000000  00000+0  00000+0 0  9994
2 38740   0.0125 336.6425 0003028 218.4136 285.5325  1.00274497 48780
INTELSAT 21 (IS-21)     
1 38749U 12045A   25337.34764845 -.00000266  00000+0  00000+0 0  9997
2 38749   0.0163 324.7378 0002452 278.7741 256.0819  1.00269041 48563
INTELSAT 23 (IS-23)     
1 38867U 12057A   25337.34860178 -.00000266  00000+0  00000+0 0  9997
2 38867   0.0465 117.5888 0001762  98.8340 288.5116  1.00269988 47998
FM-6                    
1 39360U 13058A   25337.40744881  .00000002  00000+0  00000+0 0  9994
2 39360   0.0045 100.0158 0002808  73.0769 289.9269  1.00270039 44114
INTELSAT 30 (IS-30)     
1 40271U 14062A   25337.41160882 -.00000132  00000+0  00000+0 0  9992
2 40271   0.0141   8.5662 0001171  73.1909  43.8727  1.00269864  4829
DIRECTV 14              
1 40333U 14078B   25337.41082882 -.00000107  00000+0  00000+0 0  9993
2 40333   0.0185 328.5486 0000435 234.8734 277.7581  1.00271329 40082
DIRECTV 15              
1 40663U 15026A   25336.62527056 -.00000082  00000+0  00000+0 0  9994
2 40663   0.0433 100.4968 0000298 166.0499 287.4051  1.00270418 38497
SKY MEXICO-1            
1 40664U 15026B   25337.41490219 -.00000216  00000+0  00000+0 0  9992
2 40664   0.0167 333.4226 0002768 292.8884 236.8001  1.00270532 38497
INTELSAT 34 (IS-34)     
1 40874U 15039A   25337.34816845 -.00000267  00000+0  00000+0 0  9994
2 40874   0.0131 302.3760 0000559 226.1584 333.7468  1.00270274 37667
INTELSAT 31 (IS-31)     
1 41581U 16035A   25336.39767236 -.00000130  00000+0  00000+0 0  9999
2 41581   0.0144 272.3730 0001905 308.7593 258.4788  1.00269687 34710
INTELSAT 36 (IS-36)     
1 41747U 16053A   25337.01603562 -.00000005  00000+0  00000+0 0  9995
2 41747   0.0123 348.5190 0001373 330.1213 187.7546  1.00270226 33989
INTELSAT 32E (IS-32E)   
1 41945U 17007B   25337.35059514 -.00000250  00000+0  00000+0 0  9996
2 41945   0.0290  67.4316 0000184 280.9577 167.0963  1.00269596 32267
INTELSAT 35E (IS-35E)   
1 42818U 17041A   25337.35232847 -.00000219  00000+0  00000+0 0  9991
2 42818   0.0186 325.4746 0002333 288.5800 270.7495  1.00270876 30854
INTELSAT 37E (IS-37E)   
1 42950U 17059A   25337.29143090 -.00000122  00000+0  00000+0 0  9994
2 42950   0.0159 312.1581 0003434 294.5147 272.6335  1.00270828 30104
AZERSPACE 2 (IS-38)     
1 43632U 18074A   25337.08270405  .00000156  00000+0  00000+0 0  9994
2 43632   0.0147 335.5882 0001689 279.2754 252.1998  1.00271401 26488
HORIZONS-3E             
1 43633U 18074B   25336.39766855 -.00000010  00000+0  00000+0 0  9997
2 43633   0.0303 208.7780 0001080  80.6678  94.2479  1.00268601 26369
AT&T T-16               
1 44333U 19034A   25337.41048214 -.00000096  00000+0  00000+0 0  9992
2 44333   0.0319  73.4258 0000472  90.2929 315.6945  1.00268504 23672
INTELSAT 39 (IS-39)     
1 44476U 19049B   25337.44272235  .00000052  00000+0  00000+0 0  9992
2 44476   0.0170 317.7940 0000872 197.2912 138.7759  1.00270208 23166
GALAXY 30 (G-30)        
1 46114U 20056C   25337.46780791  .00000055  00000+0  00000+0 0  9999
2 46114   0.0148 313.4363 0002454 299.3603 223.1810  1.00272752 19330
GALAXY 33 (G-33)        
1 54026U 22128A   25336.69068714  .00000099  00000+0  00000+0 0  9998
2 54026   0.0146 335.9830 0001946 271.3406 300.1238  1.00272458 11776
GALAXY 34 (G-34)        
1 54027U 22128B   25337.19090947  .00000078  00000+0  00000+0 0  9995
2 54027   0.0131 329.5107 0001417 278.9008 123.6080  1.00273357 11942
GALAXY 31 (G-31)        
1 54243U 22153A   25337.40649545  .00000000  00000+0  00000+0 0  9996
2 54243   0.0123 353.3505 0002102 274.4100 190.0557  1.00271933  5179
GALAXY 32 (G-32)        
1 54244U 22153B   25337.41247550 -.00000156  00000+0  00000+0 0  9991
2 54244   0.0104 325.3204 0002527 338.9424 185.7348  1.00270465 11186
GALAXY 35 (G-35)        
1 54741U 22170A   25337.34071507  .00000000  00000+0  00000+0 0  9998
2 54741   0.0154 333.7504 0002843 287.8383 200.3824  1.00269334 10934
GALAXY 36 (G-36)        
1 54742U 22170B   25337.41282218 -.00000167  00000+0  00000+0 0  9995
2 54742   0.0160 263.9735 0000602 345.2234 242.9257  1.00270390 10810
GALAXY 37 (G-37)        
1 57493U 23112A   25337.47058528  .00000066  00000+0  00000+0 0  9996
2 57493   0.0152 301.1960 0002478 317.5121 216.2781  1.00273018  8589
